{"type": "FeatureCollection", "features": [{"type": "Feature", "properties": {"norad_id": 2807, "name": "OPS 7218 (TRANSIT 16)", "group": "nnss", "lat": 74.23051629256034, "lon": 172.9825896116282, "alt_km": 1047.2269783782913, "timestamp": "2025-12-08T23:34:04.237815+00:00", "meta": {"OBJECT_NAME": "OPS 7218 (TRANSIT 16)", "OBJECT_ID": "1967-048A", "EPOCH": "2025-12-08T14:44:22.259328", "MEAN_MOTION": 13.50721165, "ECCENTRICITY": 0.00217748, "INCLINATION": 89.6731, "RA_OF_ASC_NODE": 354.1531, "ARG_OF_PERICENTER": 125.1393, "MEAN_ANOMALY": 353.05, "EPHEMERIS_TYPE": 0, "CLASSIFICATION_TYPE": "U", "NORAD_CAT_ID": 2807, "ELEMENT_SET_NO": 999, "REV_AT_EPOCH": 88220, "BSTAR": 0.00024293801, "MEAN_MOTION_DOT": 1.67e-06, "MEAN_MOTION_DDOT": 0}, "tle": {"line1": "1 02807U 67048A   25342.61414652  .00000167  00000+0  24294-3 0  9994", "line2": "2 02807  89.6731 354.1531 0021774 125.1393 353.0500 13.50721165882207"}}, "geometry": {"type": "Point", "coordinates": [172.9825896116282, 74.23051629256034]}}, {"type": "Feature", "properties": {"norad_id": 2965, "name": "OPS 4947 (TRANSIT 17)", "group": "nnss", "lat": 47.00541698139045, "lon": -156.0827213901579, "alt_km": 1068.6511632093834, "timestamp": "2025-12-08T23:34:04.237836+00:00", "meta": {"OBJECT_NAME": "OPS 4947 (TRANSIT 17)", "OBJECT_ID": "1967-092A", "EPOCH": "2025-12-08T14:35:47.491584", "MEAN_MOTION": 13.53452101, "ECCENTRICITY": 0.00459548, "INCLINATION": 89.2499, "RA_OF_ASC_NODE": 24.7508, "ARG_OF_PERICENTER": 246.8901, "MEAN_ANOMALY": 226.2607, "EPHEMERIS_TYPE": 0, "CLASSIFICATION_TYPE": "U", "NORAD_CAT_ID": 2965, "ELEMENT_SET_NO": 999, "REV_AT_EPOCH": 87041, "BSTAR": 0.00028038145, "MEAN_MOTION_DOT": 2.01e-06, "MEAN_MOTION_DDOT": 0}, "tle": {"line1": "1 02965U 67092A   25342.60818856  .00000201  00000+0  28038-3 0  9990", "line2": "2 02965  89.2499  24.7508 0045954 246.8901 226.2607 13.53452101870418"}}, "geometry": {"type": "Point", "coordinates": [-156.0827213901579, 47.00541698139045]}}, {"type": "Feature", "properties": {"norad_id": 3133, "name": "OPS 7034 (TRANSIT 18)", "group": "nnss", "lat": -51.31833909467318, "lon": -86.33729667616562, "alt_km": 1107.46037703019, "timestamp": "2025-12-08T23:34:04.237849+00:00", "meta": {"OBJECT_NAME": "OPS 7034 (TRANSIT 18)", "OBJECT_ID": "1968-012A", "EPOCH": "2025-12-08T14:01:16.720320", "MEAN_MOTION": 13.51564345, "ECCENTRICITY": 0.00734508, "INCLINATION": 90.0276, "RA_OF_ASC_NODE": 273.6271, "ARG_OF_PERICENTER": 181.2062, "MEAN_ANOMALY": 352.6337, "EPHEMERIS_TYPE": 0, "CLASSIFICATION_TYPE": "U", "NORAD_CAT_ID": 3133, "ELEMENT_SET_NO": 999, "REV_AT_EPOCH": 56862, "BSTAR": 0.00030228148, "MEAN_MOTION_DOT": 2.1e-06, "MEAN_MOTION_DDOT": 0}, "tle": {"line1": "1 03133U 68012A   25342.58422130  .00000210  00000+0  30228-3 0  9998", "line2": "2 03133  90.0276 273.6271 0073450 181.2062 352.6337 13.51564345568626"}}, "geometry": {"type": "Point", "coordinates": [-86.33729667616562, -51.31833909467318]}}, {"type": "Feature", "properties": {"norad_id": 4507, "name": "NNSS 19 (TRANSIT 19)", "group": "nnss", "lat": -77.80040469327534, "lon": -125.44288185374808, "alt_km": 956.7617446946151, "timestamp": "2025-12-08T23:34:04.237861+00:00", "meta": {"OBJECT_NAME": "NNSS 19 (TRANSIT 19)", "OBJECT_ID": "1970-067A", "EPOCH": "2025-12-08T15:03:19.326528", "MEAN_MOTION": 13.51313712, "ECCENTRICITY": 0.01707985, "INCLINATION": 90.0056, "RA_OF_ASC_NODE": 234.531, "ARG_OF_PERICENTER": 305.3949, "MEAN_ANOMALY": 53.1349, "EPHEMERIS_TYPE": 0, "CLASSIFICATION_TYPE": "U", "NORAD_CAT_ID": 4507, "ELEMENT_SET_NO": 999, "REV_AT_EPOCH": 72166, "BSTAR": 0.00034759109, "MEAN_MOTION_DOT": 2.55e-06, "MEAN_MOTION_DDOT": 0}, "tle": {"line1": "1 04507U 70067A   25342.62730702  .00000255  00000+0  34759-3 0  9991", "line2": "2 04507  90.0056 234.5310 0170798 305.3949  53.1349 13.51313712721665"}}, "geometry": {"type": "Point", "coordinates": [-125.44288185374808, -77.80040469327534]}}, {"type": "Feature", "properties": {"norad_id": 6909, "name": "NNSS 20 (TRANSIT 20)", "group": "nnss", "lat": 83.64145435929451, "lon": -103.59731131311011, "alt_km": 872.124870242782, "timestamp": "2025-12-08T23:34:04.237873+00:00", "meta": {"OBJECT_NAME": "NNSS 20 (TRANSIT 20)", "OBJECT_ID": "1973-081A", "EPOCH": "2025-12-08T12:39:46.833696", "MEAN_MOTION": 13.71431459, "ECCENTRICITY": 0.01566029, "INCLINATION": 89.8561, "RA_OF_ASC_NODE": 255.1173, "ARG_OF_PERICENTER": 90.7843, "MEAN_ANOMALY": 271.1266, "EPHEMERIS_TYPE": 0, "CLASSIFICATION_TYPE": "U", "NORAD_CAT_ID": 6909, "ELEMENT_SET_NO": 999, "REV_AT_EPOCH": 80303, "BSTAR": 0.00038433291, "MEAN_MOTION_DOT": 3.89e-06, "MEAN_MOTION_DDOT": 0}, "tle": {"line1": "1 06909U 73081A   25342.52762539  .00000389  00000+0  38433-3 0  9991", "line2": "2 06909  89.8561 255.1173 0156602  90.7843 271.1266 13.71431459803035"}}, "geometry": {"type": "Point", "coordinates": [-103.59731131311011, 83.64145435929451]}}, {"type": "Feature", "properties": {"norad_id": 10457, "name": "TRANSAT", "group": "nnss", "lat": -39.87728896865809, "lon": 78.4359267464989, "alt_km": 1091.8787318798104, "timestamp": "2025-12-08T23:34:04.237884+00:00", "meta": {"OBJECT_NAME": "TRANSAT", "OBJECT_ID": "1977-106A", "EPOCH": "2025-12-08T13:08:22.879392", "MEAN_MOTION": 13.48942696, "ECCENTRICITY": 0.00249987, "INCLINATION": 89.6482, "RA_OF_ASC_NODE": 78.7454, "ARG_OF_PERICENTER": 201.7986, "MEAN_ANOMALY": 169.3737, "EPHEMERIS_TYPE": 0, "CLASSIFICATION_TYPE": "U", "NORAD_CAT_ID": 10457, "ELEMENT_SET_NO": 999, "REV_AT_EPOCH": 36687, "BSTAR": 0.00023069083, "MEAN_MOTION_DOT": 1.55e-06, "MEAN_MOTION_DDOT": 0}, "tle": {"line1": "1 10457U 77106A   25342.54748703  .00000155  00000+0  23069-3 0  9995", "line2": "2 10457  89.6482  78.7454 0024998 201.7986 169.3737 13.48942696366874"}}, "geometry": {"type": "Point", "coordinates": [78.4359267464989, -39.87728896865809]}}, {"type": "Feature", "properties": {"norad_id": 12458, "name": "NOVA 1", "group": "nnss", "lat": -28.502194132379902, "lon": -88.48156245663766, "alt_km": 1179.1290872773643, "timestamp": "2025-12-08T23:34:04.237900+00:00", "meta": {"OBJECT_NAME": "NOVA 1", "OBJECT_ID": "1981-044A", "EPOCH": "2025-12-08T13:30:01.310688", "MEAN_MOTION": 13.23277843, "ECCENTRICITY": 0.00157781, "INCLINATION": 89.8524, "RA_OF_ASC_NODE": 91.4442, "ARG_OF_PERICENTER": 114.2565, "MEAN_ANOMALY": 256.8075, "EPHEMERIS_TYPE": 0, "CLASSIFICATION_TYPE": "U", "NORAD_CAT_ID": 12458, "ELEMENT_SET_NO": 999, "REV_AT_EPOCH": 15131, "BSTAR": 0.00027429807, "MEAN_MOTION_DOT": 1.25e-06, "MEAN_MOTION_DDOT": 0}, "tle": {"line1": "1 12458U 81044A   25342.56251517  .00000125  00000+0  27430-3 0  9991", "line2": "2 12458  89.8524  91.4442 0015778 114.2565 256.8075 13.23277843151318"}}, "geometry": {"type": "Point", "coordinates": [-88.48156245663766, -28.502194132379902]}}, {"type": "Feature", "properties": {"norad_id": 15362, "name": "NOVA 3", "group": "nnss", "lat": 84.39700762703747, "lon": 79.24295396464497, "alt_km": 1170.3921201594721, "timestamp": "2025-12-08T23:34:04.237913+00:00", "meta": {"OBJECT_NAME": "NOVA 3", "OBJECT_ID": "1984-110A", "EPOCH": "2025-12-08T12:18:24.606720", "MEAN_MOTION": 13.23043791, "ECCENTRICITY": 0.0030817, "INCLINATION": 90.1223, "RA_OF_ASC_NODE": 80.4849, "ARG_OF_PERICENTER": 343.9, "MEAN_ANOMALY": 26.6352, "EPHEMERIS_TYPE": 0, "CLASSIFICATION_TYPE": "U", "NORAD_CAT_ID": 15362, "ELEMENT_SET_NO": 999, "REV_AT_EPOCH": 98643, "BSTAR": 0.00023409866, "MEAN_MOTION_DOT": 1.07e-06, "MEAN_MOTION_DDOT": 0}, "tle": {"line1": "1 15362U 84110A   25342.51278480  .00000107  00000+0  23410-3 0  9992", "line2": "2 15362  90.1223  80.4849 0030817 343.9000  26.6352 13.23043791986434"}}, "geometry": {"type": "Point", "coordinates": [79.24295396464497, 84.39700762703747]}}, {"type": "Feature", "properties": {"norad_id": 15935, "name": "OSCAR 30", "group": "nnss", "lat": -13.209012473172333, "lon": 99.82426734819371, "alt_km": 1164.607336482608, "timestamp": "2025-12-08T23:34:04.237923+00:00", "meta": {"OBJECT_NAME": "OSCAR 30", "OBJECT_ID": "1985-066A", "EPOCH": "2025-12-08T09:36:41.782176", "MEAN_MOTION": 13.36077247, "ECCENTRICITY": 0.01694104, "INCLINATION": 90.1649, "RA_OF_ASC_NODE": 99.7761, "ARG_OF_PERICENTER": 96.0136, "MEAN_ANOMALY": 337.3993, "EPHEMERIS_TYPE": 0, "CLASSIFICATION_TYPE": "U", "NORAD_CAT_ID": 15935, "ELEMENT_SET_NO": 999, "REV_AT_EPOCH": 96395, "BSTAR": 0.00026620341, "MEAN_MOTION_DOT": 1.58e-06, "MEAN_MOTION_DDOT": 0}, "tle": {"line1": "1 15935U 85066A   25342.40048359  .00000158  00000+0  26620-3 0  9999", "line2": "2 15935  90.1649  99.7761 0169410  96.0136 337.3993 13.36077247963958"}}, "geometry": {"type": "Point", "coordinates": [99.82426734819371, -13.209012473172333]}}, {"type": "Feature", "properties": {"norad_id": 15936, "name": "OSCAR 24", "group": "nnss", "lat": 64.85048369950779, "lon": 91.85781667691448, "alt_km": 1013.8921152129706, "timestamp": "2025-12-08T23:34:04.237934+00:00", "meta": {"OBJECT_NAME": "OSCAR 24", "OBJECT_ID": "1985-066B", "EPOCH": "2025-12-08T14:18:54.907776", "MEAN_MOTION": 13.3593494, "ECCENTRICITY": 0.01704516, "INCLINATION": 90.1788, "RA_OF_ASC_NODE": 92.2321, "ARG_OF_PERICENTER": 101.9014, "MEAN_ANOMALY": 271.0872, "EPHEMERIS_TYPE": 0, "CLASSIFICATION_TYPE": "U", "NORAD_CAT_ID": 15936, "ELEMENT_SET_NO": 999, "REV_AT_EPOCH": 96588, "BSTAR": 0.00025540743, "MEAN_MOTION_DOT": 1.52e-06, "MEAN_MOTION_DDOT": 0}, "tle": {"line1": "1 15936U 85066B   25342.59646884  .00000152  00000+0  25541-3 0  9992", "line2": "2 15936  90.1788  92.2321 0170451 101.9014 271.0872 13.35934940965886"}}, "geometry": {"type": "Point", "coordinates": [91.85781667691448, 64.85048369950779]}}]}